NORAD_CAT_ID,OBJECT_NAME,OBJECT_TYPE,EPOCH,MEAN_MOTION,ECCENTRICITY,INCLINATION,RA_OF_ASC_NODE,ARG_OF_PERICENTER,MEAN_ANOMALY,BSTAR,MEAN_MOTION_DOT,MEAN_MOTION_DDOT,TLE_LINE0,TLE_LINE1,TLE_LINE2,SEMIMAJOR_AXIS,PERIOD,APOGEE,PERIGEE,DECAYED
55271.0,STARLINK-5306,PAYLOAD,2023-03-21 00:00:02,15.29755509,0.0003271,69.999,260.4356,274.1533,38.5147,-0.041138,-0.01088586,0.0,0 STARLINK-5306,1 55271U 23010C   23080.00002315 -.01088586  00000-0 -41138-1 0  9996,2 55271  69.9990 260.4356 0003271 274.1533  38.5147 15.29755509  9968,6854.68,94.133,478.787,474.302,0.0
55271.0,STARLINK-5306,PAYLOAD,2023-03-21 14:00:01,15.284395,0.0003257,69.9994,258.8936,268.3986,14.3725,-0.044174,-0.01119537,0.0,0 STARLINK-5306,1 55271U 23010C   23080.58335648 -.01119537  00000-0 -44174-1 0  9991,2 55271  69.9994 258.8936 0003257 268.3986  14.3725 15.28439500  1301,6858.614,94.214,482.713,478.245,0.0
55271.0,STARLINK-5306,PAYLOAD,2023-03-22 00:00:00,15.27474786,0.0003297,69.999,257.7939,278.0553,135.8752,-0.044249,-0.01091335,0.0,0 STARLINK-5306,1 55271U 23010C   23081.00001157 -.01091335  00000-0 -44249-1 0  9992,2 55271  69.9990 257.7939 0003297 278.0553 135.8752 15.27474786  1303,6861.501,94.273,485.628,481.104,0.0
55271.0,STARLINK-5306,PAYLOAD,2023-03-22 08:00:01,15.26667698,0.0003229,69.9993,256.9155,272.4139,173.4806,-0.041579,-0.01007521,0.0,0 STARLINK-5306,1 55271U 23010C   23081.33334491 -.01007521  00000-0 -41579-1 0  9995,2 55271  69.9993 256.9155 0003229 272.4139 173.4806 15.26667698 10178,6863.919,94.323,488.001,483.568,0.0
55271.0,STARLINK-5306,PAYLOAD,2023-03-22 22:00:00,15.25361531,0.0003231,69.9993,255.3804,276.4085,133.1948,-0.045423,-0.0105394,0.0,0 STARLINK-5306,1 55271U 23010C   23081.91667824 -.01053940  00000-0 -45423-1 0  9996,2 55271  69.9993 255.3804 0003231 276.4085 133.1948 15.25361531 10265,6867.837,94.404,491.921,487.483,0.0
55271.0,STARLINK-5306,PAYLOAD,2023-03-23 14:00:01,15.23867793,0.000326,69.9998,253.63,268.7499,198.8822,-0.050433,-0.01113333,0.0,0 STARLINK-5306,1 55271U 23010C   23082.58335648 -.01113333  00000-0 -50433-1 0  9996,2 55271  69.9998 253.6300 0003260 268.7499 198.8822 15.23867793 10366,6872.324,94.496,496.43,491.949,0.0
55271.0,STARLINK-5306,PAYLOAD,2023-03-24 18:00:00,15.21155012,0.0003295,70.0,250.5765,272.3767,107.8662,-0.050136,-0.01028516,0.0,0 STARLINK-5306,1 55271U 23010C   23083.75001157 -.01028516  00000-0 -50136-1 0  9999,2 55271  70.0000 250.5765 0003295 272.3767 107.8662 15.21155012 10534,6880.493,94.665,504.625,500.09,0.0
55271.0,STARLINK-5306,PAYLOAD,2023-03-24 22:00:01,15.20797504,0.0003077,69.9999,250.1411,273.4786,299.1431,-0.052276,-0.01058486,0.0,0 STARLINK-5306,1 55271U 23010C   23083.91668981 -.01058486  00000-0 -52276-1 0  9997,2 55271  69.9999 250.1411 0003077 273.4786 299.1431 15.20797504  1304,6881.571,94.687,505.553,501.318,0.0
55271.0,STARLINK-5306,PAYLOAD,2023-03-25 06:00:00,15.20001648,0.0003083,70.0003,249.2714,267.4034,329.1308,-0.050307,-0.01000049,0.0,0 STARLINK-5306,1 55271U 23010C   23084.25001157 -.01000049  00000-0 -50307-1 0  9996,2 55271  70.0003 249.2714 0003083 267.4034 329.1308 15.20001648 10612,6883.973,94.737,507.96,503.715,0.0
55271.0,STARLINK-5306,PAYLOAD,2023-03-25 14:00:01,15.19290475,0.0003192,70.0005,248.403,267.4055,352.1698,-0.056739,-0.01110041,0.0,0 STARLINK-5306,1 55271U 23010C   23084.58334491 -.01110041  00000-0 -56739-1 0  9991,2 55271  70.0005 248.4030 0003192 267.4055 352.1698 15.19290475 10669,6886.121,94.781,510.184,505.788,0.0
55271.0,STARLINK-5306,PAYLOAD,2023-03-26 00:00:00,15.18350225,0.0003294,70.0001,247.3185,274.1635,102.9363,-0.058993,-0.01122141,0.0,0 STARLINK-5306,1 55271U 23010C   23085.00001157 -.01122141  00000-0 -58993-1 0  9997,2 55271  70.0001 247.3185 0003294 274.1635 102.9363 15.18350225  1306,6888.963,94.84,513.097,508.559,0.0
55271.0,STARLINK-5306,PAYLOAD,2023-03-26 06:00:00,15.17716065,0.000326,70.0004,246.6687,267.5582,35.3951,-0.0535,-0.00995665,0.0,0 STARLINK-5306,1 55271U 23010C   23085.25001157 -.00995665  00000-0 -53500-1 0  9991,2 55271  70.0004 246.6687 0003260 267.5582  35.3951 15.17716065 10767,6890.882,94.879,514.994,510.501,0.0
55271.0,STARLINK-5306,PAYLOAD,2023-03-26 14:00:01,15.17003468,0.0003327,70.0006,245.8032,268.6776,54.5789,-0.060224,-0.01103425,0.0,0 STARLINK-5306,1 55271U 23010C   23085.58334491 -.01103425  00000-0 -60224-1 0  9994,2 55271  70.0006 245.8032 0003327 268.6776  54.5789 15.17003468 10819,6893.04,94.924,517.198,512.612,0.0
55271.0,STARLINK-5306,PAYLOAD,2023-03-27 00:00:00,15.16065619,0.0003195,70.0002,244.7226,276.1305,161.2274,-0.062851,-0.01119702,0.0,0 STARLINK-5306,1 55271U 23010C   23086.00001157 -.01119702  00000-0 -62851-1 0  9995,2 55271  70.0002 244.7226 0003195 276.1305 161.2274 15.16065619  1307,6895.882,94.983,519.951,515.544,0.0
55271.0,STARLINK-5306,PAYLOAD,2023-03-27 14:00:01,15.14719659,0.0003297,70.0007,243.2126,270.8878,107.8356,-0.064268,-0.01103249,0.0,0 STARLINK-5306,1 55271U 23010C   23086.58334491 -.01103249  00000-0 -64268-1 0  9991,2 55271  70.0007 243.2126 0003297 270.8878 107.8356 15.14719659 10972,6899.967,95.067,524.107,519.557,0.0
55271.0,STARLINK-5306,PAYLOAD,2023-03-27 22:00:00,15.13955193,0.000325,70.0003,242.351,276.3813,119.0013,-0.064383,-0.01083134,0.0,0 STARLINK-5306,1 55271U 23010C   23086.91667824 -.01083134  00000-0 -64383-1 0  9995,2 55271  70.0003 242.3510 0003250 276.3813 119.0013 15.13955193  1300,6902.289,95.115,526.398,521.911,0.0
55271.0,STARLINK-5306,PAYLOAD,2023-03-28 08:00:01,15.12998168,0.0003095,70.0004,241.2757,270.2697,234.6577,-0.06499,-0.01065593,0.0,0 STARLINK-5306,1 55271U 23010C   23087.33334491 -.01065593  00000-0 -64990-1 0  9996,2 55271  70.0004 241.2757 0003095 270.2697 234.6577 15.12998168 11085,6905.2,95.175,529.202,524.927,0.0
55271.0,STARLINK-5306,PAYLOAD,2023-03-28 14:00:01,15.12430802,0.0003295,70.0006,240.6311,272.7459,153.2316,-0.067956,-0.01094408,0.0,0 STARLINK-5306,1 55271U 23010C   23087.58334491 -.01094408  00000-0 -67956-1 0  9995,2 55271  70.0006 240.6311 0003295 272.7459 153.2316 15.12430802  1308,6906.926,95.211,531.067,526.516,0.0
55271.0,STARLINK-5306,PAYLOAD,2023-03-28 22:00:00,15.11674584,0.0003198,70.0001,239.7725,277.9196,161.9763,-0.068916,-0.0108721,0.0,0 STARLINK-5306,1 55271U 23010C   23087.91667824 -.01087210  00000-0 -68916-1 0  9991,2 55271  70.0001 239.7725 0003198 277.9196 161.9763 15.11674584  1306,6909.23,95.259,533.304,528.885,0.0
55271.0,STARLINK-5306,PAYLOAD,2023-03-29 02:00:01,15.11289254,0.0003068,70.0002,239.3436,272.084,354.4378,-0.07013,-0.01093985,0.0,0 STARLINK-5306,1 55271U 23010C   23088.08334491 -.01093985  00000-0 -70130-1 0  9998,2 55271  70.0002 239.3436 0003068 272.0840 354.4378 15.11289254 11195,6910.404,95.283,534.389,530.149,0.0
55271.0,STARLINK-5306,PAYLOAD,2023-03-29 14:00:01,15.10143826,0.0003194,70.0004,238.0587,274.1066,190.9108,-0.072048,-0.01089166,0.0,0 STARLINK-5306,1 55271U 23010C   23088.58334491 -.01089166  00000-0 -72048-1 0  9999,2 55271  70.0004 238.0587 0003194 274.1066 190.9108 15.10143826  1302,6913.898,95.355,537.971,533.555,0.0
55271.0,STARLINK-5306,PAYLOAD,2023-03-29 22:00:00,15.09394135,0.0003098,70.0,237.2032,278.867,197.3282,-0.073718,-0.01091393,0.0,0 STARLINK-5306,1 55271U 23010C   23088.91667824 -.01091393  00000-0 -73718-1 0  9995,2 55271  70.0000 237.2032 0003098 278.8670 197.3282 15.09394135  1302,6916.187,95.403,540.195,535.91,0.0
55271.0,STARLINK-5306,PAYLOAD,2023-03-30 08:00:01,15.08441054,0.000305,70.0003,236.1356,268.6234,310.2702,-0.074842,-0.01080262,0.0,0 STARLINK-5306,1 55271U 23010C   23089.33334491 -.01080262  00000-0 -74842-1 0  9995,2 55271  70.0003 236.1356 0003050 268.6234 310.2702 15.08441054 11387,6919.1,95.463,543.075,538.855,0.0
55271.0,STARLINK-5306,PAYLOAD,2023-03-31 00:00:00,15.0693349,0.0002956,70.0,234.4302,275.1796,321.0683,-0.081285,-0.01122467,0.0,0 STARLINK-5306,1 55271U 23010C   23090.00001157 -.01122467  00000-0 -81285-1 0  9994,2 55271  70.0000 234.4302 0002956 275.1796 321.0683 15.06933490  1303,6923.714,95.558,547.626,543.532,0.0
55271.0,STARLINK-5306,PAYLOAD,2023-03-31 08:00:01,15.06160903,0.0003087,70.0002,233.5792,269.0,334.5564,-0.080032,-0.0108522,0.0,0 STARLINK-5306,1 55271U 23010C   23090.33334491 -.01085220  00000-0 -80032-1 0  9994,2 55271  70.0002 233.5792 0003087 269.0000 334.5564 15.06160903 11538,6926.081,95.607,550.085,545.808,0.0
55271.0,STARLINK-5306,PAYLOAD,2023-04-01 08:00:01,15.03879101,0.0003108,70.0002,231.0318,263.4262,356.5793,-0.085246,-0.0108692,0.0,0 STARLINK-5306,1 55271U 23010C   23091.33334491 -.01086920  00000-0 -85246-1 0  9995,2 55271  70.0002 231.0318 0003108 263.4262 356.5793 15.03879101 11685,6933.086,95.752,557.105,552.796,0.0
55271.0,STARLINK-5306,PAYLOAD,2023-04-01 14:00:01,15.03280448,0.0003066,70.0003,230.3962,270.3719,262.4809,-0.084843,-0.01066228,0.0,0 STARLINK-5306,1 55271U 23010C   23091.58334491 -.01066228  00000-0 -84843-1 0  9993,2 55271  70.0003 230.3962 0003066 270.3719 262.4809 15.03280448  1301,6934.926,95.791,558.917,554.665,0.0
55271.0,STARLINK-5306,PAYLOAD,2023-04-02 00:00:00,15.02364824,0.0003017,70.0,229.3383,269.7804,356.6322,-0.091674,-0.01119876,0.0,0 STARLINK-5306,1 55271U 23010C   23092.00001157 -.01119876  00000-0 -91674-1 0  9999,2 55271  70.0000 229.3383 0003017 269.7804 356.6322 15.02364824  1302,6937.743,95.849,561.702,557.515,0.0
55271.0,STARLINK-5306,PAYLOAD,2023-04-02 08:00:01,15.01600264,0.0003135,70.0003,228.4932,263.9902,4.2497,-0.091191,-0.0109376,0.0,0 STARLINK-5306,1 55271U 23010C   23092.33334491 -.01093760  00000-0 -91191-1 0  9992,2 55271  70.0003 228.4932 0003135 263.9902   4.2497 15.01600264 11839,6940.098,95.898,564.139,559.788,0.0
55271.0,STARLINK-5306,PAYLOAD,2023-04-02 14:00:01,15.00994487,0.0003062,70.0005,227.8598,270.8079,268.2278,-0.089628,-0.01060537,0.0,0 STARLINK-5306,1 55271U 23010C   23092.58334491 -.01060537  00000-0 -89628-1 0  9997,2 55271  70.0005 227.8598 0003062 270.8079 268.2278 15.00994487  1305,6941.965,95.936,565.956,561.705,0.0
